IRIDIUM 150             
1 43257U 18030J   25363.05249184  .00000337  00000+0  11338-3 0  9996
2 43257  86.3967   1.5871 0002331  89.0019 271.1444 14.34216993405778
IRIDIUM 143             
1 43258U 18030K   25363.10322923  .00000117  00000+0  34839-4 0  9994
2 43258  86.3973   1.6517 0002456  87.7856 272.3621 14.34216059405713
IRIDIUM 161             
1 43478U 18047C   25362.89244518  .00000601  00000+0  17264-3 0  9994
2 43478  86.4516 159.6354 0001796  93.1860 266.9546 14.43284331400578
IRIDIUM 152             
1 43479U 18047D   25362.93641995  .00000463  00000+0  15842-3 0  9996
2 43479  86.3993 159.4779 0001878  95.7603 264.3807 14.34216576398080
IRIDIUM 147             
1 43480U 18047E   25362.73345123  .00000384  00000+0  13008-3 0  9994
2 43480  86.3995 159.5648 0002061  90.1684 269.9748 14.34213133398051
IRIDIUM 110             
1 43481U 18047F   25362.94909823  .00000506  00000+0  17378-3 0  9991
2 43481  86.3996 159.5619 0001512  95.7535 264.3834 14.34219184398076
IRIDIUM 162             
1 43482U 18047G   25363.30212752  .00000605  00000+0  17389-3 0  9993
2 43482  86.4515 159.3576 0002108 102.2160 257.9277 14.43286809400627
IRIDIUM 160             
1 43569U 18061A   25363.31354589  .00000357  00000+0  12023-3 0  9995
2 43569  86.3991 127.8296 0001861  94.1982 265.9427 14.34218968389022
